#dP2024  9  9  0  0  0.00000000     289   u+U IGS20 FIT  GFZ                    
## 2331  86400.00000000   300.00000000 60562 0.0000000000000                    
+  130   C01C02C03C04C05C06C07C08C09C10C12C13C14C16C19C20C21                    
+        C22C23C24C25C26C27C28C29C30C32C33C34C35C36C37C38C39                    
+        C40C41C42C43C44C45C48C50C59C60C62E02E03E04E05E06E07                    
+        E08E09E10E11E12E13E14E15E18E19E21E24E25E26E27E29E30                    
+        E31E33E34E36G01G02G03G04G05G06G07G08G09G10G11G12G13                    
+        G14G15G16G17G18G19G20G21G22G23G24G25G26G27G28G29G30                    
+        G31G32J02J03J04J07R01R02R03R04R05R07R08R09R11R12R14                    
+        R15R16R17R18R19R20R21R22R24R25R26 00 00 00 00 00 00                    
++        10 10 10 10 10 10 10  9 10  6  7 10  9 10  5  6  5                    
++         5  6  7  5  6  5  7  7  6  8  5  5  6  6  7 10 10                    
++         7  6  5  6  7  7  6  5 10 10 10  5  6  5  6  5  5                    
++         5  5  5  6  5  5  6  8  5  6  6  6  5  5  7  7  5                    
++         5  6  5  5  5  5  5  6  8  5  6  5  6  6  5  6  5                    
++         5  6  7  5  5  6 10  5  5  6  5  5  5  5  5  6  6                    
++         5  5 10 10  9 10  6  7  6  7  5  8  6  9  9  5  7                    
++         7  8  7  8 10  7  7  5  9  8  9  0  0  0  0  0  0                    
%c M  cc GPS ccc cccc cccc cccc cccc ccccc ccccc ccccc ccccc                    
%c cc cc ccc ccc cccc cccc cccc cccc ccccc ccccc ccccc ccccc                    
%f  1.2500000  1.025000000  0.00000000000  0.000000000000000                    
%f  0.0000000  0.000000000  0.00000000000  0.000000000000000                    
%i    0    0    0    0      0      0      0      0         0                    
%i    0    0    0    0      0      0      0      0         0                    
/* PCV:IGS20_2317 OL/AL:FES2014b NONE     YN CLK:CoN ORB:CoN                    
/*     GeoForschungsZentrum Potsdam                                             
/*                                                                              
/*                                                                              
*  2024  9  9  0 25  0.00000000                                                 
PC01 -34323.202500  24473.397237   1112.397804    921.153030                    
PC02   4336.910598  41918.969461    -50.550744    904.263785                    
PC03 -14784.679298  39458.904828    726.144726    881.316104                    
PC04 -39600.395769  14375.306244   1494.253859    424.845260                    
PC05  21861.528736  36062.943632   -524.628291   -386.066577                    
PC06 -13957.491045  24237.401573 -31556.279392    202.234260                    
PC07 -12208.686149  40183.648728  -1503.995807   -389.512134                    
PC08   2039.205430  29188.755670  30438.410751   -519.741299                    
PC09  -4702.218273  24261.304142 -33719.313497   -302.597125                    
PC10  -6201.163182  41105.778187   5141.586897   -168.136222                    
PC12 -11242.870781 -11285.425722 -22869.209350   -265.254362                    
PC13   8897.635635  33243.471959  24724.550450    434.862243                    
PC14 -15557.597259  -2778.304290  23003.477350   -175.747123                    
PC16 -18247.323459  22972.270735 -30093.864216   -789.722151                    
PC19  14809.215314  -8401.333756 -22102.849528   -933.984169                    
PC20  14190.410485  11561.507957 -21057.693484   -898.668068                    
PC21  -4792.862599 -26597.100783   7007.863876   -933.311196                    
PC22   7034.538144 -24870.956548 -10567.405250    117.346991                    
PC23  -8689.213062  13857.254694 -22602.330755   -830.653361                    
PC24 -24009.601654 -14177.521019    693.228128    834.280086                    
PC25 -23270.405785    116.184850 -15395.736655    500.935469                    
PC26 -11213.486524 -19495.433799  16482.191914   -346.107408                    
PC27   2168.197879  16763.208713  22186.726814    366.216707                    
PC28 -14403.448034  19518.350876  13796.534473    283.454793                    
PC29  25001.638892 -10997.337218   5734.982968    332.845119                    
PC30  18705.378173   4981.712079  20088.956118   -195.913307                    
PC32   4927.989291  26585.681673  -6872.838125   -727.925244                    
PC33 -14807.343297   8330.358939  22126.493480   -972.172406                    
PC34 -19918.795421  -3581.456786 -19229.589822    516.988647                    
PC35  14097.340293 -20045.303258 -13335.282718    265.956514                    
PC36  23070.240901     16.626692  15735.734512    178.947721                    
PC37  10800.747988  19757.615962 -16490.302903   -899.915473                    
PC38  -6697.342095  24776.092200  33535.657075    178.195127                    
PC39 -23265.122524  22995.346376 -26678.112735     -9.838208                    
PC40 -18805.369347  37346.720030  -3856.469642    -90.183206                    
PC41  -7510.187273  24339.901240  11423.506693   -912.604657                    
PC42 -13756.881286 -13502.964624  20221.388175   -474.292172                    
PC43 -25100.771380  10255.460405  -6636.177015     85.064257                    
PC44  -2771.756703 -16864.091150 -22070.221411    587.713022                    
PC45   9192.516873 -13416.540507  22678.809288   -128.823028                    
PC48  15881.133308   2806.487129 -22777.994220    890.671504                    
PC50 -10138.651838 -21720.552693  14281.673779   -811.870267                    
PC59 -32260.207524  27116.565137    823.160344     -0.312707                    
PC60   7336.444192  41512.123561   1182.176539     -0.030620                    
PC62 -39577.946112  14431.610913  -1020.839616     -0.429902                    
PE02  -2878.468435 -26603.076990  12643.094177    157.812577                    
PE03   7701.023615 -25999.056047  11876.595840   -139.117525                    
PE04   9358.509997  15358.693501 -23508.165518    -28.374068                    
PE05  19782.872308 -21060.263385  -6437.970320   4782.507249                    
PE06  16310.621386   6147.958280 -23941.145330    -23.818502                    
PE07 -20283.990893   3431.252532  21276.625146   -141.027373                    
PE08  -8558.844429 -16008.006537  23376.202974   -332.480805                    
PE09  20170.366180  -3430.319923 -21401.258842   -582.822050                    
PE10  26552.568151   8463.191768   9992.297216   -655.017156                    
PE11  29520.389095   2146.768017   -301.321928   1742.442426                    
PE12  20012.852434  12951.487125  17539.343275  -1202.042814                    
PE13 -29491.537109  -2498.402216   -288.165432    -24.595457                    
PE14  17243.027752   4247.947678  19565.127041    214.579978                    
PE15 -19452.914907 -13128.208891 -18031.804945   -125.957744                    
PE18 -11955.360263 -16326.332906 -22478.421137    526.015259                    
PE19  -9407.966802  26114.992994 -10277.961561    591.251686                    
PE21 -11439.348230  13865.327652 -23512.363778   -615.745982                    
PE24  19623.662292   7682.163128  20784.813468   -976.827156                    
PE25  11729.618775 -13442.894010  23629.099616      8.877738                    
PE26 -21706.203452   9787.124659  17581.427722   -274.702536                    
PE27 -19580.407615  -7460.834450 -20897.317453   -447.579811                    
PE29 -19716.432485  21254.681843   5990.565270    -28.804828                    
PE30 -16027.472492 -24144.400980  -6006.981632   -697.159052                    
PE31  16087.837255  24111.616305   6016.064300    -35.236772                    
PE33  -2365.936787  15834.887139  24897.913897     15.196486                    
PE34   1836.221441 -15891.358842 -24909.377428   -133.228831                    
PE36  22135.771009  -9376.841956 -17270.311281   -280.669901                    
PG01  13517.937063  -6940.057368  21409.098971    202.001886                    
PG02  -9690.170028 -13420.177752 -20375.031681   -362.032376                    
PG03 -12795.744228 -23343.998184    -26.899322    530.934831                    
PG04  -4760.665002 -17392.639408  19465.660841    440.077834                    
PG05   2171.889485  22082.685772  14361.787934   -185.960159                    
PG06 -24243.389082   5488.211782   9573.988580     43.812579                    
PG07 -24098.246089  -7310.259139   9660.086988    -40.229597                    
PG08   3690.312209 -23519.193181 -11422.745023    345.857485                    
PG09 -13365.180327  -7253.425265  21683.628180    348.507031                    
PG10  15664.469799   -818.792728 -21279.508315   -119.190933                    
PG11 -12561.522282  12772.710357  19618.293332   -732.359460                    
PG12   9131.044902  24793.732062  -3214.786189   -536.633055                    
PG13 -12863.075935  22346.236325  -6051.175297    675.450469                    
PG14 -17643.906107  -3052.808626 -19639.919165    491.274656                    
PG15   -232.484789  23907.526957 -11904.537261    202.085290                    
PG16   3863.791992 -19853.466679  16638.966042   -186.153655                    
PG17 -19221.033848   8830.372157 -15748.769551    632.377147                    
PG18  24402.566766   6636.426280   8496.810870   -652.160784                    
PG19 -19555.738866  14892.436469  -9650.611893    535.580611                    
PG20  -6027.993574  15708.041569  20651.825826    370.834271                    
PG21  -3889.493380 -14699.934322 -21426.581307    102.113032                    
PG22 -13884.539925   5765.809259 -21481.375237    -59.935647                    
PG23  18613.696840  12034.739310 -14767.861855    315.928788                    
PG24   7457.821077  15030.379273 -21099.676808   -486.785393                    
PG25  17018.508232  19160.686834   7134.710014    499.588628                    
PG26  12236.211964 -10049.804276  21149.064759     83.114364                    
PG27  12210.527303 -23272.724055  -1839.507985    -33.762391                    
PG28  25045.098680  -5302.586666   7072.703918   -404.105867                    
PG29  10539.937562  10918.263275  21746.687248   -579.078070                    
PG30 -26685.095561    213.076529   -874.199737   -324.867951                    
PG31  17581.668593 -11041.752369  16552.661675   -224.925788                    
PG32  18614.487711 -10572.458186 -15376.120843   -598.936506                    
PJ02 -20833.506715  25284.912296 -21883.104506     -0.976425                    
PJ03 -30824.228954  24738.500239  19718.305195     -2.789745                    
PJ04 -27901.076277  28937.718148  18599.677188     22.331594                    
PJ07 -25354.197439  33677.864471    -40.800781      0.000306                    
PR01  11421.507241  -5638.881906 -22106.872769     97.165148                    
PR02   9347.909802 -20660.606044 -11570.157946    -24.560806                    
PR03   1628.891187 -24767.835067   5775.768949    107.193382                    
PR04  -6291.748781 -15244.749153  19474.978049    253.794697                    
PR05 -11172.801581   2372.094102  22815.252782    137.387133                    
PR07  -1443.482354  24718.001359  -6216.317375     90.518575                    
PR08   6569.105639  15066.281596 -19468.058399     -6.381427                    
PR09  -8062.992279   8049.177259 -22802.437677    208.073102                    
PR11  18452.453982  17249.493741  -3468.390181     12.383950                    
PR12  19393.890522   6583.078736  15241.553815     44.628322                    
PR14  -7684.979488 -17112.290751  17313.295806     26.910451                    
PR15 -19021.422939 -16911.760632   1786.201327     76.080185                    
PR16 -19433.517817  -6778.472671 -15080.092013     28.966490                    
PR17   3312.011392 -12008.754423 -22258.244375    120.319883                    
PR18 -13476.199588  -5411.479333 -20964.010064    161.120548                    
PR19 -23064.232614   2117.749835 -10668.697908   -290.685907                    
PR20 -20420.124382  11151.942170  10498.827463   -118.823752                    
PR21  -4074.582949  12033.736469  22113.105053   -132.857672                    
PR22  14470.824138   5506.544472  20297.582365     51.396149                    
PR24  19490.812381 -12402.053226 -10827.638997    -71.235004                    
PR25  -3205.755096  12067.837590  22244.809721   -100.871791                    
PR26   6046.585950  16300.251630 -18642.715813     21.056149                    
EOF                                     
